{"type": "FeatureCollection", "features": [ {"type": "Feature", "properties": {"norad_id": 34963, "name": "COSMOS 2251 DEB", "group": "cosmos-2251-debris", "lat": 8.402318915977084, "lon": 17.869603671565923, "alt_km": 751.1792614954657, "timestamp": "2025-12-27T08:36:18.780254+00:00", "meta": {"OBJECT_NAME": "COSMOS 2251 DEB", "OBJECT_ID": "1993-036AES", "EPOCH": "2025-12-24T11:04:35.037696", "MEAN_MOTION": 14.51189706, "ECCENTRICITY": 0.00420275, "INCLINATION": 74.171, "RA_OF_ASC_NODE": 20.8715, "ARG_OF_PERICENTER": 215.0245, "MEAN_ANOMALY": 144.8152, "EPHEMERIS_TYPE": 0, "CLASSIFICATION_TYPE": "U", "NORAD_CAT_ID": 34963, "ELEMENT_SET_NO": 999, "REV_AT_EPOCH": 86971, "BSTAR": 0.00126389, "MEAN_MOTION_DOT": 5.053e-05, "MEAN_MOTION_DDOT": 0}, "tle": {"line1": "1 34963U 93036AES 25358.46151664  .00005053  00000+0  12639-2 0  9997", "line2": "2 34963  74.1710  20.8715 0042027 215.0245 144.8152 14.51189706869712"}}, "geometry": {"type": "Point", "coordinates": [17.869603671565923, 8.402318915977084]}}, {"type": "Feature", "properties": {"norad_id": 34964, "name": "COSMOS 2251 DEB", "group": "cosmos-2251-debris", "lat": -67.81139177491325, "lon": -172.78362033433964, "alt_km": 859.796098896215, "timestamp": "2025-12-27T08:36:18.780263+00:00", "meta": {"OBJECT_NAME": "COSMOS 2251 DEB", "OBJECT_ID": "1993-036AET", "EPOCH": "2025-12-18T07:25:04.519776", "MEAN_MOTION": 14.00628567, "ECCENTRICITY": 0.02123167, "INCLINATION": 73.9712, "RA_OF_ASC_NODE": 338.1457, "ARG_OF_PERICENTER": 195.4091, "MEAN_ANOMALY": 164.0515, "EPHEMERIS_TYPE": 0, "CLASSIFICATION_TYPE": "U", "NORAD_CAT_ID": 34964, "ELEMENT_SET_NO": 999, "REV_AT_EPOCH": 84556, "BSTAR": 0.00089791859, "MEAN_MOTION_DOT": 1.6e-05, "MEAN_MOTION_DDOT": 0}, "tle": {"line1": "1 34964U 93036AET 25352.30908009  .00001600  00000+0  89792-3 0  9997", "line2": "2 34964  73.9712 338.1457 0212316 195.4091 164.0515 14.00628567845561"}}, "geometry": {"type": "Point", "coordinates": [-172.78362033433964, -67.81139177491325]}}, {"type": "Feature", "properties": {"norad_id": 34965, "name": "COSMOS 2251 DEB", "group": "cosmos-2251-debris", "lat": -28.140623312147806, "lon": 92.30226007629186, "alt_km": 739.7955978501523, "timestamp": "2025-12-27T08:36:18.780273+00:00", "meta": {"OBJECT_NAME": "COSMOS 2251 DEB", "OBJECT_ID": "1993-036AEU", "EPOCH": "2025-12-27T00:27:15.901920", "MEAN_MOTION": 14.48744245, "ECCENTRICITY": 0.0026338, "INCLINATION": 74.052, "RA_OF_ASC_NODE": 101.7354, "ARG_OF_PERICENTER": 227.1535, "MEAN_ANOMALY": 132.7412, "EPHEMERIS_TYPE": 0, "CLASSIFICATION_TYPE": "U", "NORAD_CAT_ID": 34965, "ELEMENT_SET_NO": 999, "REV_AT_EPOCH": 87320, "BSTAR": 0.00040692, "MEAN_MOTION_DOT": 1.514e-05, "MEAN_MOTION_DDOT": 0}, "tle": {"line1": "1 34965U 93036AEU 25361.01893405  .00001514  00000+0  40692-3 0  9999", "line2": "2 34965  74.0520 101.7354 0026338 227.1535 132.7412 14.48744245873208"}}, "geometry": {"type": "Point", "coordinates": [92.30226007629186, -28.140623312147806]}}, {"type": "Feature", "properties": {"norad_id": 34967, "name": "COSMOS 2251 DEB", "group": "cosmos-2251-debris", "lat": 8.010609767056703, "lon": -131.09596614669437, "alt_km": 718.2165848117147, "timestamp": "2025-12-27T08:36:18.780283+00:00", "meta": {"OBJECT_NAME": "COSMOS 2251 DEB", "OBJECT_ID": "1993-036AEW", "EPOCH": "2025-12-24T22:23:05.722368", "MEAN_MOTION": 14.44316705, "ECCENTRICITY": 0.0038667, "INCLINATION": 73.9924, "RA_OF_ASC_NODE": 231.1127, "ARG_OF_PERICENTER": 14.6551, "MEAN_ANOMALY": 345.5717, "EPHEMERIS_TYPE": 0, "CLASSIFICATION_TYPE": "U", "NORAD_CAT_ID": 34967, "ELEMENT_SET_NO": 999, "REV_AT_EPOCH": 65133, "BSTAR": 0.00061268, "MEAN_MOTION_DOT": 2.1e-05, "MEAN_MOTION_DDOT": 0}, "tle": {"line1": "1 34967U 93036AEW 25358.93270512  .00002100  00000+0  61268-3 0  9990", "line2": "2 34967  73.9924 231.1127 0038667  14.6551 345.5717 14.44316705651339"}}, "geometry": {"type": "Point", "coordinates": [-131.09596614669437, 8.010609767056703]}}, {"type": "Feature", "properties": {"norad_id": 34968, "name": "COSMOS 2251 DEB", "group": "cosmos-2251-debris", "lat": -57.82686989315998, "lon": -167.86354140173643, "alt_km": 652.6267608696362, "timestamp": "2025-12-27T08:36:18.780292+00:00", "meta": {"OBJECT_NAME": "COSMOS 2251 DEB", "OBJECT_ID": "1993-036AEX", "EPOCH": "2025-12-26T21:22:00.377760", "MEAN_MOTION": 14.59429118, "ECCENTRICITY": 0.0087295, "INCLINATION": 74.0371, "RA_OF_ASC_NODE": 220.0941, "ARG_OF_PERICENTER": 336.9625, "MEAN_ANOMALY": 22.7634, "EPHEMERIS_TYPE": 0, "CLASSIFICATION_TYPE": "U", "NORAD_CAT_ID": 34968, "ELEMENT_SET_NO": 999, "REV_AT_EPOCH": 88684, "BSTAR": 0.00015768, "MEAN_MOTION_DOT": 7.55e-06, "MEAN_MOTION_DDOT": 0}, "tle": {"line1": "1 34968U 93036AEX 25360.89028215  .00000755  00000+0  15768-3 0  9998", "line2": "2 34968  74.0371 220.0941 0087295 336.9625  22.7634 14.59429118886849"}}, "geometry": {"type": "Point", "coordinates": [-167.86354140173643, -57.82686989315998]}}, {"type": "Feature", "properties": {"norad_id": 34969, "name": "COSMOS 2251 DEB", "group": "cosmos-2251-debris", "lat": 39.21804301061718, "lon": 9.958798213931258, "alt_km": 775.5577729541756, "timestamp": "2025-12-27T08:36:18.780302+00:00", "meta": {"OBJECT_NAME": "COSMOS 2251 DEB", "OBJECT_ID": "1993-036AEY", "EPOCH": "2025-12-26T17:19:34.272480", "MEAN_MOTION": 14.3227655, "ECCENTRICITY": 0.007302, "INCLINATION": 74.0139, "RA_OF_ASC_NODE": 357.5919, "ARG_OF_PERICENTER": 127.2117, "MEAN_ANOMALY": 233.5728, "EPHEMERIS_TYPE": 0, "CLASSIFICATION_TYPE": "U", "NORAD_CAT_ID": 34969, "ELEMENT_SET_NO": 999, "REV_AT_EPOCH": 65337, "BSTAR": 0.00027741107, "MEAN_MOTION_DOT": 7.45e-06, "MEAN_MOTION_DDOT": 0}, "tle": {"line1": "1 34969U 93036AEY 25360.72192445  .00000745  00000+0  27741-3 0  9991", "line2": "2 34969  74.0139 357.5919 0073020 127.2117 233.5728 14.32276550653378"}}, "geometry": {"type": "Point", "coordinates": [9.958798213931258, 39.21804301061718]}}, {"type": "Feature", "properties": {"norad_id": 34971, "name": "COSMOS 2251 DEB", "group": "cosmos-2251-debris", "lat": 15.77406335599596, "lon": 72.55413648581838, "alt_km": 672.4295581874549, "timestamp": "2025-12-27T08:36:18.780312+00:00", "meta": {"OBJECT_NAME": "COSMOS 2251 DEB", "OBJECT_ID": "1993-036AFA", "EPOCH": "2025-12-26T23:41:25.656000", "MEAN_MOTION": 14.55655373, "ECCENTRICITY": 0.0069172, "INCLINATION": 73.9782, "RA_OF_ASC_NODE": 257.9161, "ARG_OF_PERICENTER": 119.8318, "MEAN_ANOMALY": 257.3481, "EPHEMERIS_TYPE": 0, "CLASSIFICATION_TYPE": "U", "NORAD_CAT_ID": 34971, "ELEMENT_SET_NO": 999, "REV_AT_EPOCH": 66380, "BSTAR": 0.00018757, "MEAN_MOTION_DOT": 8.16e-06, "MEAN_MOTION_DDOT": 0}, "tle": {"line1": "1 34971U 93036AFA 25360.98710250  .00000816  00000+0  18757-3 0  9998", "line2": "2 34971  73.9782 257.9161 0069172 119.8318 257.3481 14.55655373663806"}}, "geometry": {"type": "Point", "coordinates": [72.55413648581838, 15.77406335599596]}}, {"type": "Feature", "properties": {"norad_id": 34972, "name": "COSMOS 2251 DEB", "group": "cosmos-2251-debris", "lat": -60.98494150010765, "lon": -127.52440896644987, "alt_km": 649.3218745877166, "timestamp": "2025-12-27T08:36:18.780353+00:00", "meta": {"OBJECT_NAME": "COSMOS 2251 DEB", "OBJECT_ID": "1993-036AFB", "EPOCH": "2025-12-26T12:37:34.370400", "MEAN_MOTION": 14.7310501, "ECCENTRICITY": 0.0032419, "INCLINATION": 73.9877, "RA_OF_ASC_NODE": 22.9204, "ARG_OF_PERICENTER": 179.2872, "MEAN_ANOMALY": 332.9317, "EPHEMERIS_TYPE": 0, "CLASSIFICATION_TYPE": "U", "NORAD_CAT_ID": 34972, "ELEMENT_SET_NO": 999, "REV_AT_EPOCH": 87853, "BSTAR": 0.0013355, "MEAN_MOTION_DOT": 8.649e-05, "MEAN_MOTION_DDOT": 0}, "tle": {"line1": "1 34972U 93036AFB 25360.52609225  .00008649  00000+0  13355-2 0  9998", "line2": "2 34972  73.9877  22.9204 0032419 179.2872 332.9317 14.73105010878533"}}, "geometry": {"type": "Point", "coordinates": [-127.52440896644987, -60.98494150010765]}}, {"type": "Feature", "properties": {"norad_id": 34976, "name": "COSMOS 2251 DEB", "group": "cosmos-2251-debris", "lat": 5.530981376983906, "lon": 96.05170115777554, "alt_km": 669.1173634744518, "timestamp": "2025-12-27T08:36:18.780364+00:00", "meta": {"OBJECT_NAME": "COSMOS 2251 DEB", "OBJECT_ID": "1993-036AFF", "EPOCH": "2025-12-26T18:57:11.946240", "MEAN_MOTION": 14.76873799, "ECCENTRICITY": 0.00477313, "INCLINATION": 74.058, "RA_OF_ASC_NODE": 278.7508, "ARG_OF_PERICENTER": 322.3783, "MEAN_ANOMALY": 68.9832, "EPHEMERIS_TYPE": 0, "CLASSIFICATION_TYPE": "U", "NORAD_CAT_ID": 34976, "ELEMENT_SET_NO": 999, "REV_AT_EPOCH": 88481, "BSTAR": 0.0016536947, "MEAN_MOTION_DOT": 0.00011829, "MEAN_MOTION_DDOT": 0}, "tle": {"line1": "1 34976U 93036AFF 25360.78972160  .00011829  00000+0  16537-2 0  9990", "line2": "2 34976  74.0580 278.7508 0047731 322.3783  68.9832 14.76873799884818"}}, "geometry": {"type": "Point", "coordinates": [96.05170115777554, 5.530981376983906]}}, {"type": "Feature", "properties": {"norad_id": 34979, "name": "COSMOS 2251 DEB", "group": "cosmos-2251-debris", "lat": 7.778515823564278, "lon": -119.2618362926519, "alt_km": 612.1604116718363, "timestamp": "2025-12-27T08:36:18.780374+00:00", "meta": {"OBJECT_NAME": "COSMOS 2251 DEB", "OBJECT_ID": "1993-036AFJ", "EPOCH": "2025-12-27T02:04:40.918080", "MEAN_MOTION": 14.79596019, "ECCENTRICITY": 0.0049167, "INCLINATION": 74.0387, "RA_OF_ASC_NODE": 239.0326, "ARG_OF_PERICENTER": 314.0916, "MEAN_ANOMALY": 45.6218, "EPHEMERIS_TYPE": 0, "CLASSIFICATION_TYPE": "U", "NORAD_CAT_ID": 34979, "ELEMENT_SET_NO": 999, "REV_AT_EPOCH": 88432, "BSTAR": 0.0012564, "MEAN_MOTION_DOT": 9.588e-05, "MEAN_MOTION_DDOT": 0}, "tle": {"line1": "1 34979U 93036AFJ 25361.08658470  .00009588  00000+0  12564-2 0  9997", "line2": "2 34979  74.0387 239.0326 0049167 314.0916  45.6218 14.79596019884321"}}, "geometry": {"type": "Point", "coordinates": [-119.2618362926519, 7.778515823564278]}}]}